{
  "type": "FeatureCollection",
  "generator": "overpass-turbo",
  "copyright": "The data included in this document is from www.openstreetmap.org. The data is made available under ODbL.",
  "timestamp": "2026-01-03T22:50:00Z",
  "features": [
    {
      "type": "Feature",
      "properties": {
        "@id": "way/4675996",
        "addr:city": "Berlin",
        "addr:housenumber": "57",
        "addr:postcode": "10557",
        "addr:street": "Invalidenstraße",
        "amenity": "police",
        "contact:website": "https://www.berlin.de/polizei/dienststellen/landespolizeidirektion/",
        "name": "Landespolizeidirektion",
        "operator": "Polizei Berlin",
        "operator:wikidata": "Q328480",
        "phone": "+49 30 46640",
        "short_name": "LPD",
        "wikidata": "Q108870749",
        "@geometry": "center"
      },
      "geometry": {
        "type": "Point",
        "coordinates": [
          13.3622089,
          52.5238477
        ]
      },
      "id": "way/4675996"
    },
    {
      "type": "Feature",
      "properties": {
        "@id": "way/5095457",
        "access": "no",
        "amenity": "police",
        "check_date": "2024-05-13",
        "name": "Polizeidirektion 2 / Polizeiakademie",
        "opening_hours": "Mo-Th 07:00-15:30; Fr 07:00-15:00",
        "police": "academy",
        "website": "https://www.berlin.de/polizei/dienststellen/polizeiakademie/",
        "@geometry": "center"
      },
      "geometry": {
        "type": "Point",
        "coordinates": [
          13.2270537,
          52.5271377
        ]
      },
      "id": "way/5095457"
    },
    {
      "type": "Feature",
      "properties": {
        "@id": "relation/14431759",
        "amenity": "police",
        "barrier": "fence",
        "landuse": "civic_admin",
        "name": "Kasernengelände Am Treptower Park",
        "office": "government",
        "operator": "Bundeskriminalamt",
        "operator:short": "BKA",
        "operator:wikidata": "Q56030",
        "operator:wikipedia": "de:Bundeskriminalamt (Deutschland)",
        "short_name": "BKA",
        "type": "multipolygon",
        "wikidata": "Q1734923",
        "wikipedia": "de:Kasernengelände Am Treptower Park",
        "@geometry": "center"
      },
      "geometry": {
        "type": "Point",
        "coordinates": [
          13.4533978,
          52.49253
        ]
      },
      "id": "relation/14431759"
    },
    {
      "type": "Feature",
      "properties": {
        "@id": "way/27168946",
        "amenity": "police",
        "name": "Bundespolizeidirektion Berlin",
        "operator": "Bundespolizei",
        "operator:short": "BPOL",
        "operator:wikidata": "Q56026",
        "police": "offices",
        "surveillance": "outdoor",
        "website": "https://www.bundespolizei.de/Web/DE/05Die-Bundespolizei/03Organisation/02Direktionen/Berlin/berlin_node.html",
        "@geometry": "center"
      },
      "geometry": {
        "type": "Point",
        "coordinates": [
          13.5019263,
          52.4629926
        ]
      },
      "id": "way/27168946"
    },
    {
      "type": "Feature",
      "properties": {
        "@id": "way/28026882",
        "addr:city": "Berlin",
        "addr:country": "DE",
        "addr:housenumber": "28",
        "addr:postcode": "13357",
        "addr:street": "Pankstraße",
        "addr:suburb": "Gesundbrunnen",
        "amenity": "police",
        "building": "commercial",
        "building:levels": "4",
        "contact:phone": "+49 30 4664 11 87 01",
        "name": "Polizei Abschnitt 18",
        "operator": "Polizei Berlin",
        "operator:wikidata": "Q328480",
        "roof:levels": "0",
        "roof:shape": "gabled",
        "source": "Geoportal Berlin / Hauskoordinaten",
        "wheelchair": "yes",
        "@geometry": "center"
      },
      "geometry": {
        "type": "Point",
        "coordinates": [
          13.375285,
          52.5480535
        ]
      },
      "id": "way/28026882"
    },
    {
      "type": "Feature",
      "properties": {
        "@id": "node/29695282",
        "addr:city": "Berlin",
        "addr:country": "DE",
        "addr:housenumber": "61A",
        "addr:postcode": "10559",
        "addr:street": "Perleberger Straße",
        "addr:suburb": "Moabit",
        "amenity": "police",
        "check_date": "2024-06-14",
        "name": "Polizei Abschnitt 27",
        "wheelchair": "limited"
      },
      "geometry": {
        "type": "Point",
        "coordinates": [
          13.3536389,
          52.5336632
        ]
      },
      "id": "node/29695282"
    },
    {
      "type": "Feature",
      "properties": {
        "@id": "way/32551048",
        "amenity": "police",
        "building": "yes",
        "ref": "Halle A4",
        "@geometry": "center"
      },
      "geometry": {
        "type": "Point",
        "coordinates": [
          13.2433695,
          52.6182613
        ]
      },
      "id": "way/32551048"
    },
    {
      "type": "Feature",
      "properties": {
        "@id": "way/40955402",
        "addr:city": "Berlin",
        "addr:country": "DE",
        "addr:housenumber": "16",
        "addr:postcode": "10965",
        "addr:street": "Friesenstraße",
        "addr:suburb": "Kreuzberg",
        "amenity": "police",
        "building": "yes",
        "building:levels": "5",
        "contact:website": "https://www.berlin.de/polizei/dienststellen/landespolizeidirektion/direktion-5/abschnitt-52/",
        "name": "Polizeiabschnitt 52",
        "operator": "Polizei Berlin",
        "operator:wikidata": "Q328480",
        "phone": "+49 30 4664552700",
        "wheelchair": "no",
        "wikidata": "Q108875637",
        "@geometry": "center"
      },
      "geometry": {
        "type": "Point",
        "coordinates": [
          13.3953344,
          52.4862718
        ]
      },
      "id": "way/40955402"
    },
    {
      "type": "Feature",
      "properties": {
        "@id": "way/44115854",
        "amenity": "police",
        "name": "Polizei Berlin Direktion 3 - Abschnitt 32",
        "operator": "Polizei Berlin",
        "operator:wikidata": "Q328480",
        "operator:wikipedia": "de:Polizei Berlin",
        "website": "https://www.berlin.de/polizei/dienststellen/landespolizeidirektion/direktion-3/abschnitt-32/",
        "wheelchair": "yes",
        "wheelchair:description": "Parkplatz für Rollstuhlfahrer am Eingang",
        "wikidata": "Q108873783",
        "@geometry": "center"
      },
      "geometry": {
        "type": "Point",
        "coordinates": [
          13.5622226,
          52.5272382
        ]
      },
      "id": "way/44115854"
    },
    {
      "type": "Feature",
      "properties": {
        "@id": "way/48898764",
        "amenity": "police",
        "leaf_type": "mixed",
        "name": "Polizeiübungsgelände „Fighting City Ruhleben“",
        "source": "Yahoo WMS;local knowledge",
        "wikipedia": "de:Fighting City",
        "@geometry": "center"
      },
      "geometry": {
        "type": "Point",
        "coordinates": [
          13.2271823,
          52.5218656
        ]
      },
      "id": "way/48898764"
    },
    {
      "type": "Feature",
      "properties": {
        "@id": "way/52044902",
        "addr:city": "Berlin",
        "addr:country": "DE",
        "addr:housenumber": "7",
        "addr:postcode": "12203",
        "addr:street": "Augustaplatz",
        "addr:suburb": "Lichterfelde",
        "amenity": "police",
        "barrier": "wall",
        "name": "Polizeidirektion 4 - Abschnitt 45",
        "wikidata": "Q108875632",
        "@geometry": "center"
      },
      "geometry": {
        "type": "Point",
        "coordinates": [
          13.3065893,
          52.4440136
        ]
      },
      "id": "way/52044902"
    },
    {
      "type": "Feature",
      "properties": {
        "@id": "way/59806046",
        "amenity": "police",
        "indoor": "yes",
        "level": "1",
        "name": "Bundespolizei",
        "name:ja": "連邦警察",
        "operator": "Bundespolizei",
        "operator:short": "BPOL",
        "operator:wikidata": "Q56026",
        "operator:wikipedia": "de:Bundespolizei (Deutschland)",
        "wheelchair": "yes",
        "@geometry": "center"
      },
      "geometry": {
        "type": "Point",
        "coordinates": [
          13.3685784,
          52.5254911
        ]
      },
      "id": "way/59806046"
    },
    {
      "type": "Feature",
      "properties": {
        "@id": "node/84644753",
        "addr:city": "Berlin",
        "addr:country": "DE",
        "addr:housenumber": "219",
        "addr:postcode": "10969",
        "addr:street": "Friedrichstraße",
        "addr:suburb": "Kreuzberg",
        "amenity": "police",
        "check_date": "2025-05-09",
        "level": "0;1",
        "name": "Abschnitt 53 Kreuzberg-Nord",
        "name:de": "Abschnitt 53 Kreuzberg-Nord",
        "name:en": "District 53 North Kreuzberg",
        "operator": "Polizei Berlin",
        "operator:wikidata": "Q328480",
        "operator:wikipedia": "de:Polizei Berlin",
        "wheelchair": "no",
        "wikidata": "Q108875638"
      },
      "geometry": {
        "type": "Point",
        "coordinates": [
          13.3905699,
          52.5049589
        ]
      },
      "id": "node/84644753"
    },
    {
      "type": "Feature",
      "properties": {
        "@id": "way/85248048",
        "addr:city": "Berlin",
        "addr:country": "DE",
        "addr:housenumber": "2-4",
        "addr:postcode": "10557",
        "addr:street": "Kruppstraße",
        "addr:suburb": "Moabit",
        "amenity": "police",
        "check_date": "2024-05-26",
        "name": "1. Bereitschaftspolizeiabteilung",
        "@geometry": "center"
      },
      "geometry": {
        "type": "Point",
        "coordinates": [
          13.35551,
          52.5331256
        ]
      },
      "id": "way/85248048"
    },
    {
      "type": "Feature",
      "properties": {
        "@id": "way/122072500",
        "amenity": "police",
        "name": "Direktion 6 Verkehrsermittlungsdienst",
        "@geometry": "center"
      },
      "geometry": {
        "type": "Point",
        "coordinates": [
          13.5501736,
          52.4366526
        ]
      },
      "id": "way/122072500"
    },
    {
      "type": "Feature",
      "properties": {
        "@id": "way/143308531",
        "addr:city": "Berlin",
        "addr:country": "DE",
        "addr:housenumber": "42",
        "addr:postcode": "12487",
        "addr:street": "Segelfliegerdamm",
        "addr:suburb": "Johannisthal",
        "amenity": "police",
        "barrier": "fence",
        "description": "ehem. Kreisdirektion der Staatssicherheit",
        "name": "Polizei Berlin Abschnitt 35",
        "name:en": "Berlin Police 35th district",
        "operator": "Polizei Berlin",
        "operator:wikidata": "Q328480",
        "operator:wikipedia": "de:Polizei Berlin",
        "wikidata": "Q108875607",
        "@geometry": "center"
      },
      "geometry": {
        "type": "Point",
        "coordinates": [
          13.5080732,
          52.4435389
        ]
      },
      "id": "way/143308531"
    },
    {
      "type": "Feature",
      "properties": {
        "@id": "way/145796794",
        "addr:city": "Berlin",
        "addr:country": "DE",
        "addr:housenumber": "19",
        "addr:postcode": "10823",
        "addr:street": "Gothaer Straße",
        "addr:suburb": "Schöneberg",
        "amenity": "police",
        "building": "public",
        "building:levels": "4",
        "name": "Abschnitt 41",
        "operator": "Polizei Berlin",
        "operator:wikidata": "Q328480",
        "roof:levels": "1",
        "roof:shape": "hipped",
        "wheelchair": "limited",
        "wheelchair:description": "Eingang über die Apostel-Paulus-Straße durch den Hof",
        "wikidata": "Q108875628",
        "@geometry": "center"
      },
      "geometry": {
        "type": "Point",
        "coordinates": [
          13.3476668,
          52.4887096
        ]
      },
      "id": "way/145796794"
    },
    {
      "type": "Feature",
      "properties": {
        "@id": "way/152197361",
        "addr:city": "Berlin",
        "addr:country": "DE",
        "addr:housenumber": "107",
        "addr:postcode": "12045",
        "addr:street": "Sonnenallee",
        "addr:suburb": "Neukölln",
        "amenity": "police",
        "building": "public",
        "building:levels": "5",
        "contact:fax": "+49 30 4664554799",
        "contact:phone": "+49 30 4664554700",
        "contact:website": "https://www.berlin.de/polizei/dienststellen/polizei-in-den-bezirken/direktion-5/abschnitt-54/",
        "heritage": "4",
        "heritage:operator": "lda",
        "heritage:website": "https://denkmaldatenbank.berlin.de/daobj.php?obj_dok_nr=09090532",
        "name": "Polizeiabschnitt 54",
        "ref:lda": "09090532",
        "start_date": "1901..1902",
        "wheelchair": "no",
        "wikidata": "Q108875639",
        "wikimedia_commons": "File:09090532_Sonnenallee_107.jpg",
        "@geometry": "center"
      },
      "geometry": {
        "type": "Point",
        "coordinates": [
          13.4408241,
          52.4817825
        ]
      },
      "id": "way/152197361"
    },
    {
      "type": "Feature",
      "properties": {
        "@id": "way/175568051",
        "addr:city": "Berlin",
        "addr:housenumber": "35",
        "addr:postcode": "10317",
        "addr:street": "Nöldnerstraße",
        "amenity": "police",
        "name": "Polizei Abschnitt 34",
        "operator": "Polizei Berlin",
        "operator:wikidata": "Q328480",
        "operator:wikipedia": "de:Polizei Berlin",
        "website": "https://www.berlin.de/polizei/dienststellen/landespolizeidirektion/direktion-3/abschnitt-34/",
        "wheelchair": "yes",
        "wikidata": "Q108875606",
        "@geometry": "center"
      },
      "geometry": {
        "type": "Point",
        "coordinates": [
          13.4845627,
          52.5015956
        ]
      },
      "id": "way/175568051"
    },
    {
      "type": "Feature",
      "properties": {
        "@id": "way/201855153",
        "addr:city": "Berlin",
        "addr:country": "DE",
        "addr:housenumber": "16",
        "addr:postcode": "13347",
        "addr:street": "Oudenarder Straße",
        "addr:suburb": "Wedding",
        "amenity": "police",
        "building": "civic",
        "building:levels": "4",
        "contact:phone": "+49 30 4664117701",
        "email": "direktion1@Polizei.Berlin.de",
        "fax": "+49 30 4664117799",
        "name": "Polizei Abschnitt 17",
        "roof:levels": "1",
        "website": "https://www.berlin.de/polizei/dienststellen/landespolizeidirektion/direktion-1/abschnitt-17/",
        "wheelchair": "yes",
        "@geometry": "center"
      },
      "geometry": {
        "type": "Point",
        "coordinates": [
          13.3606345,
          52.5527421
        ]
      },
      "id": "way/201855153"
    },
    {
      "type": "Feature",
      "properties": {
        "@id": "node/206102770",
        "amenity": "police",
        "name": "Polizei Abschnitt 46",
        "operator": "Polizei Berlin",
        "operator:wikidata": "Q328480",
        "operator:wikipedia": "de:Polizei Berlin",
        "phone": "+49 30 4664 446 701",
        "website": "http://www.berlin.de/polizei/bezirk/dir4/a46.html",
        "wheelchair": "no"
      },
      "geometry": {
        "type": "Point",
        "coordinates": [
          13.3475906,
          52.4276915
        ]
      },
      "id": "node/206102770"
    },
    {
      "type": "Feature",
      "properties": {
        "@id": "way/217353511",
        "amenity": "police",
        "check_date": "2025-09-14",
        "name": "Polizei Berlin Abschnitt 33",
        "opening_hours": "24/7",
        "operator": "Polizei Berlin",
        "operator:wikidata": "Q328480",
        "operator:wikipedia": "de:Polizei Berlin",
        "website": "https://www.berlin.de/polizei/dienststellen/landespolizeidirektion/direktion-3/abschnitt-33/",
        "wheelchair": "limited",
        "wikidata": "Q108875588",
        "@geometry": "center"
      },
      "geometry": {
        "type": "Point",
        "coordinates": [
          13.5912107,
          52.5151788
        ]
      },
      "id": "way/217353511"
    },
    {
      "type": "Feature",
      "properties": {
        "@id": "node/242769298",
        "amenity": "police",
        "name": "Polizei Abschnitt 22",
        "wheelchair": "yes"
      },
      "geometry": {
        "type": "Point",
        "coordinates": [
          13.2269115,
          52.5280167
        ]
      },
      "id": "node/242769298"
    },
    {
      "type": "Feature",
      "properties": {
        "@id": "node/244118624",
        "addr:city": "Berlin",
        "addr:country": "DE",
        "addr:housenumber": "9",
        "addr:postcode": "12053",
        "addr:street": "Rollbergstraße",
        "amenity": "police",
        "contact:fax": "+49 30 4664555799",
        "contact:phone": "+49 30 4664555700",
        "contact:website": "https://www.berlin.de/polizei/dienststellen/polizei-in-den-bezirken/direktion-5/abschnitt-55/",
        "name": "Polizeiabschnitt 55",
        "wheelchair": "limited",
        "wikidata": "Q108875640"
      },
      "geometry": {
        "type": "Point",
        "coordinates": [
          13.4347588,
          52.479156
        ]
      },
      "id": "node/244118624"
    },
    {
      "type": "Feature",
      "properties": {
        "@id": "node/261965140",
        "addr:city": "Berlin",
        "addr:housenumber": "5-8",
        "addr:postcode": "12435",
        "addr:street": "Am Treptower Park",
        "amenity": "police",
        "building": "yes",
        "name": "Gemeinsames Terrorismusabwehrzentrum",
        "short_name": "GTAZ",
        "url": "https://www.bka.de/DE/UnsereAufgaben/Kooperationen/GTAZ/gtaz_node.html",
        "wikidata": "Q1411368",
        "wikipedia": "de:Gemeinsames Terrorismusabwehrzentrum"
      },
      "geometry": {
        "type": "Point",
        "coordinates": [
          13.4562264,
          52.4922153
        ]
      },
      "id": "node/261965140"
    },
    {
      "type": "Feature",
      "properties": {
        "@id": "way/280370840",
        "amenity": "police",
        "name": "Direktion 5 Brennpunkt- und Präsenzeinheit",
        "note": "Außenstelle",
        "@geometry": "center"
      },
      "geometry": {
        "type": "Point",
        "coordinates": [
          13.3631985,
          52.5235286
        ]
      },
      "id": "way/280370840"
    },
    {
      "type": "Feature",
      "properties": {
        "@id": "way/306713736",
        "addr:city": "Berlin",
        "addr:country": "DE",
        "addr:housenumber": "210",
        "addr:postcode": "13088",
        "addr:street": "Berliner Allee",
        "addr:suburb": "Weißensee",
        "amenity": "police",
        "contact:phone": "+49 30 4664114701",
        "name": "Polizei Abschnitt 14",
        "wikidata": "Q108875615",
        "@geometry": "center"
      },
      "geometry": {
        "type": "Point",
        "coordinates": [
          13.4673745,
          52.5573983
        ]
      },
      "id": "way/306713736"
    },
    {
      "type": "Feature",
      "properties": {
        "@id": "way/336068064",
        "amenity": "police",
        "check_date": "2025-08-09",
        "indoor": "room",
        "level": "0",
        "name": "Bundespolizei",
        "operator": "Bundespolizei",
        "operator:short": "BPOL",
        "operator:wikidata": "Q56026",
        "operator:wikipedia": "de:Bundespolizei (Deutschland)",
        "wheelchair": "yes",
        "@geometry": "center"
      },
      "geometry": {
        "type": "Point",
        "coordinates": [
          13.385862,
          52.5203487
        ]
      },
      "id": "way/336068064"
    },
    {
      "type": "Feature",
      "properties": {
        "@id": "way/354129767",
        "amenity": "police",
        "name": "Polizeidirektion 3, Kriminalpolizei",
        "operator": "Polizei Berlin",
        "operator:wikidata": "Q328480",
        "@geometry": "center"
      },
      "geometry": {
        "type": "Point",
        "coordinates": [
          13.4740946,
          52.4814071
        ]
      },
      "id": "way/354129767"
    },
    {
      "type": "Feature",
      "properties": {
        "@id": "way/363385011",
        "addr:city": "Berlin",
        "addr:housenumber": "211",
        "addr:postcode": "12305",
        "addr:street": "Lichtenrader Damm",
        "addr:suburb": "Lichtenrade",
        "amenity": "police",
        "name": "Polizei - Abschnitt 47",
        "operator": "Polizei Berlin",
        "operator:wikidata": "Q328480",
        "phone": "+49 30 4664447701",
        "website": "https://www.berlin.de/polizei/dienststellen/landespolizeidirektion/direktion-4/abschnitt-47/",
        "wikidata": "Q108875634",
        "@geometry": "center"
      },
      "geometry": {
        "type": "Point",
        "coordinates": [
          13.4075217,
          52.3941803
        ]
      },
      "id": "way/363385011"
    },
    {
      "type": "Feature",
      "properties": {
        "@id": "way/374919027",
        "addr:city": "Berlin",
        "addr:country": "DE",
        "addr:housenumber": "111",
        "addr:postcode": "10625",
        "addr:street": "Bismarckstraße",
        "addr:suburb": "Charlottenburg",
        "alt_name": "Direktion 2 - Abschnitt 25 Charlottenburg-Wilmersdorf",
        "amenity": "police",
        "check_date": "2023-04-13",
        "contact:phone": "+49 30 4664225700",
        "contact:website": "https://www.berlin.de/polizei/dienststellen/polizei-in-den-bezirken/direktion-2/abschnitt-25/",
        "level": "0",
        "name": "Polizei Abschnitt 25",
        "operator": "Polizei Berlin",
        "operator:wikidata": "Q328480",
        "operator:wikipedia": "de:Polizei Berlin",
        "wheelchair": "limited",
        "wikidata": "Q108875624",
        "@geometry": "center"
      },
      "geometry": {
        "type": "Point",
        "coordinates": [
          13.3190402,
          52.5119465
        ]
      },
      "id": "way/374919027"
    },
    {
      "type": "Feature",
      "properties": {
        "@id": "way/380533978",
        "addr:city": "Berlin",
        "addr:country": "DE",
        "addr:housenumber": "10",
        "addr:postcode": "13597",
        "addr:street": "Moritzstraße",
        "addr:suburb": "Spandau",
        "amenity": "police",
        "contact:phone": "+49 30 4664221700",
        "contact:website": "http://www.berlin.de/polizei/dienststellen/polizei-in-den-bezirken/direktion-2/abschnitt-21/",
        "name": "Polizei Abschnitt 21",
        "wheelchair": "yes",
        "wikidata": "Q108875620",
        "@geometry": "center"
      },
      "geometry": {
        "type": "Point",
        "coordinates": [
          13.2000102,
          52.5393557
        ]
      },
      "id": "way/380533978"
    },
    {
      "type": "Feature",
      "properties": {
        "@id": "way/381240717",
        "access": "customers",
        "amenity": "police",
        "check_date": "2025-11-07",
        "description": "Bundespolizeirevier Berlin-Südkreuz",
        "indoor": "room",
        "level": "0",
        "name": "Bundespolizei",
        "operator": "Bundespolizei",
        "operator:short": "BPOL",
        "operator:wikidata": "Q56026",
        "operator:wikipedia": "de:Bundespolizei (Deutschland)",
        "phone": "+49 30 7890860",
        "room": "office",
        "wheelchair": "yes",
        "@geometry": "center"
      },
      "geometry": {
        "type": "Point",
        "coordinates": [
          13.3650143,
          52.4768249
        ]
      },
      "id": "way/381240717"
    },
    {
      "type": "Feature",
      "properties": {
        "@id": "way/390602076",
        "addr:city": "Berlin",
        "addr:country": "DE",
        "addr:housenumber": "175",
        "addr:postcode": "10119",
        "addr:street": "Brunnenstraße",
        "addr:suburb": "Mitte",
        "amenity": "police",
        "check_date": "2024-06-16",
        "contact:phone": "+49 30 4664556700",
        "name": "Polizei Abschnitt 56",
        "operator": "Polizei Berlin",
        "operator:wikidata": "Q328480",
        "operator:wikipedia": "de:Polizei Berlin",
        "website": "https://www.berlin.de/polizei/dienststellen/landespolizeidirektion/direktion-5/abschnitt-56/",
        "wheelchair": "yes",
        "wikidata": "Q108875641",
        "@geometry": "center"
      },
      "geometry": {
        "type": "Point",
        "coordinates": [
          13.3984761,
          52.5322369
        ]
      },
      "id": "way/390602076"
    },
    {
      "type": "Feature",
      "properties": {
        "@id": "way/452892945",
        "addr:city": "Berlin",
        "addr:country": "DE",
        "addr:housenumber": "2",
        "addr:postcode": "13057",
        "addr:street": "Pablo-Picasso-Straße",
        "addr:suburb": "Neu-Hohenschönhausen",
        "amenity": "police",
        "contact:website": "https://www.berlin.de/polizei/dienststellen/landespolizeidirektion/direktion-3/abschnitt-31/",
        "name": "Polizei Abschnitt 31",
        "phone": "+49 30 4664661700",
        "wheelchair": "no",
        "wikidata": "Q108875570",
        "wikimedia_commons": "File:Polizeiabschnitt 31 Falkenberger Chaussee Berlin-Neu-Hohenschönhausen.jpg",
        "@geometry": "center"
      },
      "geometry": {
        "type": "Point",
        "coordinates": [
          13.5150073,
          52.5661788
        ]
      },
      "id": "way/452892945"
    },
    {
      "type": "Feature",
      "properties": {
        "@id": "node/509897018",
        "amenity": "police",
        "check_date": "2025-02-03",
        "level": "1",
        "name": "Bundespolizei",
        "operator": "Bundespolizei",
        "operator:short": "BPOL",
        "operator:wikidata": "Q56026",
        "operator:wikipedia": "de:Bundespolizei (Deutschland)",
        "wheelchair": "yes"
      },
      "geometry": {
        "type": "Point",
        "coordinates": [
          13.4968683,
          52.5093215
        ]
      },
      "id": "node/509897018"
    },
    {
      "type": "Feature",
      "properties": {
        "@id": "way/539888720",
        "addr:city": "Berlin",
        "addr:country": "DE",
        "addr:housenumber": "1",
        "addr:postcode": "14057",
        "addr:street": "Kaiserdamm",
        "addr:suburb": "Charlottenburg",
        "amenity": "police",
        "contact:website": "https://www.berlin.de/polizei/dienststellen/landespolizeidirektion/direktion-2/abschnitt-24/",
        "name": "Polizei Abschnitt 24",
        "opening_hours": "24/7",
        "operator": "Polizei Berlin",
        "operator:wikidata": "Q328480",
        "phone": "+49 30 4664224700",
        "wheelchair": "no",
        "wikidata": "Q108875623",
        "@geometry": "center"
      },
      "geometry": {
        "type": "Point",
        "coordinates": [
          13.2954479,
          52.5113597
        ]
      },
      "id": "way/539888720"
    },
    {
      "type": "Feature",
      "properties": {
        "@id": "way/547670250",
        "amenity": "police",
        "building": "public",
        "building:colour": "#d7e1e3",
        "building:levels": "1",
        "camera:type": "dome",
        "check_date": "2024-01-30",
        "contact:website": "https://www.berlin.de/polizei/dienststellen/landespolizeidirektion/direktion-5/abschnitt-57-nebenwache-am-alexanderplatz/",
        "name": "Wache am Alexanderplatz",
        "nohousenumber": "yes",
        "opening_hours": "24/7",
        "roof:colour": "grey",
        "roof:shape": "flat",
        "start_date": "2017-12-15",
        "surveillance": "public",
        "surveillance:type": "camera",
        "surveillance:zone": "building",
        "toilets:wheelchair": "no",
        "wheelchair": "yes",
        "wikidata": "Q62469856",
        "@geometry": "center"
      },
      "geometry": {
        "type": "Point",
        "coordinates": [
          13.4132185,
          52.5214416
        ]
      },
      "id": "way/547670250"
    },
    {
      "type": "Feature",
      "properties": {
        "@id": "node/573418582",
        "amenity": "police",
        "name": "Stadionwache",
        "name:ja": "スタジアム警備",
        "wheelchair": "no"
      },
      "geometry": {
        "type": "Point",
        "coordinates": [
          13.238435,
          52.513314
        ]
      },
      "id": "node/573418582"
    },
    {
      "type": "Feature",
      "properties": {
        "@id": "node/614482788",
        "addr:city": "Berlin",
        "addr:country": "DE",
        "addr:housenumber": "35",
        "addr:postcode": "10178",
        "addr:street": "Keibelstraße",
        "addr:suburb": "Mitte",
        "amenity": "police",
        "contact:phone": "+49 30 4664332700",
        "contact:website": "https://www.berlin.de/polizei/dienststellen/landespolizeidirektion/direktion-5/abschnitt-57/",
        "name": "Polizei Berlin – Abschnitt 57",
        "operator": "Polizei Berlin",
        "operator:wikidata": "Q328480",
        "operator:wikipedia": "de:Polizei Berlin",
        "wheelchair": "yes",
        "wikidata": "Q108875642"
      },
      "geometry": {
        "type": "Point",
        "coordinates": [
          13.4156959,
          52.524282
        ]
      },
      "id": "node/614482788"
    },
    {
      "type": "Feature",
      "properties": {
        "@id": "node/659031944",
        "addr:city": "Berlin",
        "addr:country": "DE",
        "addr:housenumber": "101",
        "addr:postcode": "10407",
        "addr:street": "Storkower Straße",
        "addr:suburb": "Prenzlauer Berg",
        "amenity": "police",
        "check_date": "2025-06-30",
        "name": "Polizei Berlin Abschnitt 16",
        "operator": "Polizei Berlin",
        "operator:wikidata": "Q328480",
        "operator:wikipedia": "de:Polizei Berlin",
        "website": "http://www.berlin.de/polizei/bezirk/dir1/a16.html",
        "wheelchair": "limited",
        "wikidata": "Q108875617"
      },
      "geometry": {
        "type": "Point",
        "coordinates": [
          13.4523417,
          52.5379765
        ]
      },
      "id": "node/659031944"
    },
    {
      "type": "Feature",
      "properties": {
        "@id": "way/726871277",
        "addr:city": "Berlin",
        "addr:country": "DE",
        "addr:housenumber": "45",
        "addr:postcode": "10827",
        "addr:street": "Hauptstraße",
        "amenity": "police",
        "contact:email": "dir4a42wache@polizei.berlin.de",
        "contact:fax": "+49 30 4664442799",
        "contact:phone": "+49 30 4664442701",
        "contact:website": "https://www.berlin.de/polizei/dienststellen/polizei-in-den-bezirken/direktion-4/abschnitt-42",
        "name": "Abschnitt 42",
        "operator": "Polizei Berlin",
        "operator:wikidata": "Q328480",
        "ref:lda": "09066527",
        "wikidata": "Q108875629",
        "@geometry": "center"
      },
      "geometry": {
        "type": "Point",
        "coordinates": [
          13.3495775,
          52.4836201
        ]
      },
      "id": "way/726871277"
    },
    {
      "type": "Feature",
      "properties": {
        "@id": "way/726872556",
        "addr:city": "Berlin",
        "addr:housenumber": "6",
        "addr:postcode": "12099",
        "addr:street": "Götzstraße",
        "addr:suburb": "Tempelhof",
        "amenity": "police",
        "contact:phone": "+49 30 4664444701",
        "description": "Direktion 4",
        "name": "Polizei Abschnitt 44",
        "operator": "Polizei Berlin",
        "operator:wikidata": "Q328480",
        "wheelchair": "yes",
        "wikidata": "Q108875631",
        "@geometry": "center"
      },
      "geometry": {
        "type": "Point",
        "coordinates": [
          13.3872875,
          52.464346
        ]
      },
      "id": "way/726872556"
    },
    {
      "type": "Feature",
      "properties": {
        "@id": "way/727012359",
        "addr:city": "Berlin",
        "addr:country": "DE",
        "addr:housenumber": "6-8",
        "addr:postcode": "13437",
        "addr:street": "Am Nordgraben",
        "addr:suburb": "Wittenau",
        "amenity": "police",
        "contact:phone": "+49 30 4664112701",
        "name": "Polizei Abschnitt 12",
        "wheelchair": "yes",
        "wikidata": "Q63257981",
        "wikimedia_commons": "Category:Polizeiinspektion Reinickendorf",
        "@geometry": "center"
      },
      "geometry": {
        "type": "Point",
        "coordinates": [
          13.3266187,
          52.5869558
        ]
      },
      "id": "way/727012359"
    },
    {
      "type": "Feature",
      "properties": {
        "@id": "way/727012448",
        "addr:city": "Berlin",
        "addr:country": "DE",
        "addr:housenumber": "37",
        "addr:postcode": "13187",
        "addr:street": "Hadlichstraße",
        "addr:suburb": "Pankow",
        "amenity": "police",
        "check_date": "2025-11-07",
        "contact:phone": "+49 30 4664113701",
        "name": "Polizei Abschnitt 13",
        "toilets:wheelchair": "no",
        "wheelchair": "no",
        "wikidata": "Q108875614",
        "@geometry": "center"
      },
      "geometry": {
        "type": "Point",
        "coordinates": [
          13.4148404,
          52.5698909
        ]
      },
      "id": "way/727012448"
    },
    {
      "type": "Feature",
      "properties": {
        "@id": "way/727014524",
        "addr:city": "Berlin",
        "addr:country": "DE",
        "addr:housenumber": "27",
        "addr:postcode": "13581",
        "addr:street": "Schmidt-Knobelsdorf-Straße",
        "addr:suburb": "Wilhelmstadt",
        "amenity": "police",
        "name": "Polizeiabschnitt 23",
        "toilets:wheelchair": "no",
        "website": "https://www.berlin.de/polizei/dienststellen/landespolizeidirektion/direktion-2/abschnitt-23/",
        "wheelchair": "limited",
        "wikidata": "Q108875622",
        "@geometry": "center"
      },
      "geometry": {
        "type": "Point",
        "coordinates": [
          13.187884,
          52.522189
        ]
      },
      "id": "way/727014524"
    },
    {
      "type": "Feature",
      "properties": {
        "@id": "way/727646449",
        "addr:city": "Berlin",
        "addr:country": "DE",
        "addr:housenumber": "10",
        "addr:postcode": "14129",
        "addr:street": "Alemannenstraße",
        "addr:suburb": "Nikolassee",
        "amenity": "police",
        "check_date": "2025-11-28",
        "contact:phone": "+49 30 4664443701",
        "name": "Polizei Abschnitt 43",
        "website": "https://www.berlin.de/polizei/dienststellen/landespolizeidirektion/direktion-4/abschnitt-43/",
        "wheelchair": "yes",
        "wikidata": "Q108875630",
        "@geometry": "center"
      },
      "geometry": {
        "type": "Point",
        "coordinates": [
          13.1950642,
          52.431557
        ]
      },
      "id": "way/727646449"
    },
    {
      "type": "Feature",
      "properties": {
        "@id": "way/742046626",
        "amenity": "police",
        "contact:phone": "+49 30 4664581700",
        "name": "Direktion 5",
        "operator": "Polizei Berlin",
        "operator:wikidata": "Q328480",
        "toilets:wheelchair": "yes",
        "wheelchair": "limited",
        "@geometry": "center"
      },
      "geometry": {
        "type": "Point",
        "coordinates": [
          13.3977867,
          52.4851233
        ]
      },
      "id": "way/742046626"
    },
    {
      "type": "Feature",
      "properties": {
        "@id": "way/913282610",
        "addr:housenumber": "7",
        "addr:street": "Blumberger Damm",
        "amenity": "police",
        "building": "civic",
        "building:levels": "1",
        "name": "Polizeiliche Fahrzeugsicherstellung",
        "opening_hours": "Mo-We 09:00-14:00; Th 12:00-18:00",
        "phone": "+49 30 4664796281",
        "roof:shape": "flat",
        "@geometry": "center"
      },
      "geometry": {
        "type": "Point",
        "coordinates": [
          13.5635393,
          52.5261069
        ]
      },
      "id": "way/913282610"
    },
    {
      "type": "Feature",
      "properties": {
        "@id": "node/988558167",
        "addr:city": "Berlin",
        "addr:housenumber": "145",
        "addr:postcode": "10557",
        "addr:street": "Alt-Moabit",
        "addr:suburb": "Moabit",
        "amenity": "police",
        "check_date": "2025-12-14",
        "contact:phone": "+49 30 4664334700",
        "name": "Polizei Abschnitt 28",
        "operator": "Polizei Berlin",
        "operator:wikidata": "Q328480",
        "operator:wikipedia": "de:Polizei Berlin",
        "wheelchair": "yes",
        "wikidata": "Q108875627"
      },
      "geometry": {
        "type": "Point",
        "coordinates": [
          13.3659377,
          52.5220276
        ]
      },
      "id": "node/988558167"
    },
    {
      "type": "Feature",
      "properties": {
        "@id": "way/1030336239",
        "addr:city": "Berlin",
        "addr:country": "DE",
        "addr:housenumber": "81",
        "addr:postcode": "10713",
        "addr:street": "Rudolstädter Straße",
        "amenity": "police",
        "check_date": "2025-06-09",
        "name": "Polizeidirektion 2- Abschnitt 26",
        "wheelchair": "yes",
        "wikidata": "Q108875625",
        "@geometry": "center"
      },
      "geometry": {
        "type": "Point",
        "coordinates": [
          13.3049014,
          52.4857091
        ]
      },
      "id": "way/1030336239"
    },
    {
      "type": "Feature",
      "properties": {
        "@id": "way/1051488422",
        "amenity": "police",
        "check_date": "2025-11-10",
        "contact:website": "https://www.berlin.de/polizei/dienststellen/landespolizeidirektion/",
        "name": "Polizei Berlin Abschnitt 36",
        "operator": "Polizei Berlin",
        "operator:wikidata": "Q328480",
        "operator:wikipedia": "de:Polizei Berlin",
        "wikidata": "Q108875608",
        "@geometry": "center"
      },
      "geometry": {
        "type": "Point",
        "coordinates": [
          13.5793773,
          52.4424384
        ]
      },
      "id": "way/1051488422"
    },
    {
      "type": "Feature",
      "properties": {
        "@id": "way/1087550511",
        "amenity": "police",
        "building": "yes",
        "@geometry": "center"
      },
      "geometry": {
        "type": "Point",
        "coordinates": [
          13.2212729,
          52.4648482
        ]
      },
      "id": "way/1087550511"
    },
    {
      "type": "Feature",
      "properties": {
        "@id": "way/1137216638",
        "addr:city": "Berlin",
        "addr:housenumber": "58",
        "addr:postcode": "12353",
        "addr:street": "Zwickauer Damm",
        "amenity": "police",
        "name": "Polizeidirektion 4 - Abschnitt 48",
        "operator": "Polizei Berlin",
        "operator:wikidata": "Q328480",
        "phone": "+49 30 4664448700",
        "wheelchair": "limited",
        "wikidata": "Q108875635",
        "@geometry": "center"
      },
      "geometry": {
        "type": "Point",
        "coordinates": [
          13.4777576,
          52.4193507
        ]
      },
      "id": "way/1137216638"
    },
    {
      "type": "Feature",
      "properties": {
        "@id": "way/1158500479",
        "addr:city": "Berlin",
        "addr:country": "DE",
        "addr:housenumber": "6-9",
        "addr:postcode": "10437",
        "addr:street": "Eberswalder Straße",
        "addr:suburb": "Prenzlauer Berg",
        "amenity": "police",
        "contact:phone": "+49 30 4664 11 57 01",
        "name": "Polizei Abschnitt 15",
        "wheelchair": "no",
        "wikidata": "Q108875616",
        "@geometry": "center"
      },
      "geometry": {
        "type": "Point",
        "coordinates": [
          13.406858,
          52.5406806
        ]
      },
      "id": "way/1158500479"
    },
    {
      "type": "Feature",
      "properties": {
        "@id": "node/1235571254",
        "amenity": "police",
        "name": "2. Bereitschaftspolizeiabteilung",
        "short_name": "2. BPA",
        "website": "https://www.berlin.de/polizei/dienststellen/direktion-einsatz/bereitschaftspolizei/"
      },
      "geometry": {
        "type": "Point",
        "coordinates": [
          13.2446746,
          52.6171547
        ]
      },
      "id": "node/1235571254"
    },
    {
      "type": "Feature",
      "properties": {
        "@id": "node/1288824514",
        "addr:city": "Berlin",
        "addr:country": "DE",
        "addr:postcode": "10243",
        "addr:suburb": "Friedrichshain",
        "amenity": "police",
        "check_date": "2024-11-27",
        "level": "0",
        "name": "Bundespolizei",
        "operator": "Bundespolizei",
        "operator:short": "BPOL",
        "operator:wikidata": "Q56026",
        "operator:wikipedia": "de:Bundespolizei (Deutschland)",
        "wheelchair": "limited"
      },
      "geometry": {
        "type": "Point",
        "coordinates": [
          13.4353317,
          52.5094753
        ]
      },
      "id": "node/1288824514"
    },
    {
      "type": "Feature",
      "properties": {
        "@id": "way/1424485231",
        "addr:city": "Berlin",
        "addr:country": "DE",
        "addr:housenumber": "1",
        "addr:postcode": "12681",
        "addr:street": "Poelchaustraße",
        "addr:suburb": "Marzahn",
        "alt_name": "Direktion 3 (Ost)",
        "amenity": "police",
        "name": "Direktion 3",
        "police": "offices",
        "source": "Geoportal Berlin / Hauskoordinaten",
        "wikidata": "Q108867945",
        "@geometry": "center"
      },
      "geometry": {
        "type": "Point",
        "coordinates": [
          13.538232,
          52.5355981
        ]
      },
      "id": "way/1424485231"
    },
    {
      "type": "Feature",
      "properties": {
        "@id": "node/2891400692",
        "addr:city": "Berlin",
        "addr:country": "DE",
        "addr:housenumber": "35",
        "addr:postcode": "13507",
        "addr:street": "Berliner Straße",
        "addr:suburb": "Tegel",
        "amenity": "police",
        "contact:fax": "+49 30 4664111799",
        "contact:phone": "+49 30 4664111701",
        "contact:website": "https://www.berlin.de/polizei/dienststellen/landespolizeidirektion/direktion-1/abschnitt-11/",
        "name": "Polizei Berlin – Abschnitt 11",
        "operator": "Polizei Berlin",
        "operator:wikidata": "Q328480",
        "wikidata": "Q108875609"
      },
      "geometry": {
        "type": "Point",
        "coordinates": [
          13.289049,
          52.5824041
        ]
      },
      "id": "node/2891400692"
    },
    {
      "type": "Feature",
      "properties": {
        "@id": "node/3230826578",
        "addr:city": "Berlin",
        "addr:country": "DE",
        "addr:housenumber": "10",
        "addr:postcode": "10243",
        "addr:street": "Wedekindstraße",
        "addr:suburb": "Friedrichshain",
        "amenity": "police",
        "check_date": "2024-11-26",
        "contact:website": "https://www.berlin.de/polizei/dienststellen/polizei-in-den-bezirken/direktion-5/abschnitt-51/",
        "name": "Polizei Berlin Abschnitt 51",
        "operator": "Polizei Berlin",
        "operator:wikidata": "Q328480",
        "operator:wikipedia": "de:Polizei Berlin",
        "wheelchair": "yes",
        "wikidata": "Q108875636"
      },
      "geometry": {
        "type": "Point",
        "coordinates": [
          13.444588,
          52.5122072
        ]
      },
      "id": "node/3230826578"
    },
    {
      "type": "Feature",
      "properties": {
        "@id": "node/10671508605",
        "addr:city": "Berlin",
        "addr:country": "DE",
        "addr:housenumber": "3",
        "addr:postcode": "10999",
        "addr:street": "Adalbertstraße",
        "addr:suburb": "Kreuzberg",
        "alt_name": "Kotti-Wache",
        "amenity": "police",
        "contact:email": "dir5a53kottiwache@polizei.berlin.de",
        "contact:fax": "+49 30 4664553899",
        "contact:phone": "+49 30 4664553800",
        "contact:website": "https://berlin.de/polizei/dienststellen/landespolizeidirektion/direktion-5/abschnitt-53-nebenwache-am-kottbusser-tor/",
        "level": "1",
        "name": "Nebenwache am Kottbusser Tor",
        "start_date": "2023-02-15"
      },
      "geometry": {
        "type": "Point",
        "coordinates": [
          13.4183773,
          52.5001222
        ]
      },
      "id": "node/10671508605"
    },
    {
      "type": "Feature",
      "properties": {
        "@id": "node/11568947841",
        "amenity": "police",
        "name": "Bundespolizei",
        "operator": "Bundespolizei",
        "operator:short": "BPOL",
        "operator:wikidata": "Q56026",
        "operator:wikipedia": "de:Bundespolizei (Deutschland)",
        "wheelchair": "yes"
      },
      "geometry": {
        "type": "Point",
        "coordinates": [
          13.333723,
          52.5083788
        ]
      },
      "id": "node/11568947841"
    },
    {
      "type": "Feature",
      "properties": {
        "@id": "node/12161696502",
        "amenity": "police",
        "name": "Anti-Terror-Zentrum"
      },
      "geometry": {
        "type": "Point",
        "coordinates": [
          13.3758937,
          52.4689123
        ]
      },
      "id": "node/12161696502"
    },
    {
      "type": "Feature",
      "properties": {
        "@id": "node/12847789059",
        "addr:city": "Berlin",
        "addr:housenumber": "3",
        "addr:postcode": "10317",
        "addr:street": "Kynaststraße",
        "amenity": "police",
        "name": "Bundeskriminalamt Berlin - Liegenschaft B4",
        "operator": "Bundeskriminalamt",
        "operator:short": "BKA",
        "operator:wikidata": "Q56030"
      },
      "geometry": {
        "type": "Point",
        "coordinates": [
          13.4678385,
          52.4978807
        ]
      },
      "id": "node/12847789059"
    }
  ]
}
